[{"OBJECT_NAME":"STARLINK-5401","OBJECT_ID":"2022-177BC","EPOCH":"2026-03-08T12:30:42.167232","MEAN_MOTION":15.02896874,"ECCENTRICITY":0.0001749,"INCLINATION":43.0079,"RA_OF_ASC_NODE":126.3191,"ARG_OF_PERICENTER":274.8194,"MEAN_ANOMALY":85.2449,"EPHEMERIS_TYPE":0,"CLASSIFICATION_TYPE":"U","NORAD_CAT_ID":54870,"ELEMENT_SET_NO":999,"REV_AT_EPOCH":17693,"BSTAR":0.0019979415,"MEAN_MOTION_DOT":0.0002715,"MEAN_MOTION_DDOT":0},{"OBJECT_NAME":"IRIDIUM 33 DEB","OBJECT_ID":"1997-051ABJ","EPOCH":"2026-03-07T11:02:11.153184","MEAN_MOTION":15.04355632,"ECCENTRICITY":0.00105712,"INCLINATION":86.348,"RA_OF_ASC_NODE":321.5871,"ARG_OF_PERICENTER":86.7515,"MEAN_ANOMALY":38.318,"EPHEMERIS_TYPE":0,"CLASSIFICATION_TYPE":"U","NORAD_CAT_ID":40996,"ELEMENT_SET_NO":999,"REV_AT_EPOCH":63758,"BSTAR":0.0045408492,"MEAN_MOTION_DOT":0.00063892,"MEAN_MOTION_DDOT":0}]
